APSTAR 6E SPS           
1 55447U 23005C   23032.59706943 -.00000074  00000+0 -15187-1 0  9993
2 55447  28.6595 328.9614 2302668 155.0002  14.2898  7.60509168   111
1998-067VB              
1 55448U 98067VB  23032.79986740  .00020573  00000+0  36266-3 0  9998
2 55448  51.6405 279.1276 0004921 304.2638 186.1180 15.50369967   179
